{
  "links" : {
    "next" : "https://api.nasa.gov/neo/rest/v1/feed?start_date=2008-05-09&end_date=2008-05-09&detailed=true&api_key=t0TVs3DtDT2H8Oy2Zy8m2eVrNsAVKAexjcZXUckd",
    "prev" : "https://api.nasa.gov/neo/rest/v1/feed?start_date=2008-05-07&end_date=2008-05-07&detailed=true&api_key=t0TVs3DtDT2H8Oy2Zy8m2eVrNsAVKAexjcZXUckd",
    "self" : "https://api.nasa.gov/neo/rest/v1/feed?start_date=2008-05-08&end_date=2008-05-08&detailed=true&api_key=t0TVs3DtDT2H8Oy2Zy8m2eVrNsAVKAexjcZXUckd"
  },
  "element_count" : 6,
  "near_earth_objects" : {
    "2008-05-08" : [ {
      "links" : {
        "self" : "https://api.nasa.gov/neo/rest/v1/neo/2186823?api_key=t0TVs3DtDT2H8Oy2Zy8m2eVrNsAVKAexjcZXUckd"
      },
      "neo_reference_id" : "2186823",
      "name" : "186823 (2004 FN32)",
      "nasa_jpl_url" : "http://ssd.jpl.nasa.gov/sbdb.cgi?sstr=2186823",
      "absolute_magnitude_h" : 19.2,
      "estimated_diameter" : {
        "kilometers" : {
          "estimated_diameter_min" : 0.3841978911,
          "estimated_diameter_max" : 0.8590926012
        },
        "meters" : {
          "estimated_diameter_min" : 384.1978910643,
          "estimated_diameter_max" : 859.0926012318
        },
        "miles" : {
          "estimated_diameter_min" : 0.2387294278,
          "estimated_diameter_max" : 0.5338152287
        },
        "feet" : {
          "estimated_diameter_min" : 1260.4918089193,
          "estimated_diameter_max" : 2818.5453698252
        }
      },
      "is_potentially_hazardous_asteroid" : false,
      "close_approach_data" : [ {
        "close_approach_date" : "2008-05-08",
        "epoch_date_close_approach" : 1210230000000,
        "relative_velocity" : {
          "kilometers_per_second" : "18.7982710639",
          "kilometers_per_hour" : "67673.7758301653",
          "miles_per_hour" : "42049.8525429158"
        },
        "miss_distance" : {
          "astronomical" : "0.3032120576",
          "lunar" : "117.9494857788",
          "kilometers" : "45359876",
          "miles" : "28185320"
        },
        "orbiting_body" : "Earth"
      } ],
      "orbital_data" : {
        "orbit_id" : "54",
        "orbit_determination_date" : "2017-04-06 09:25:48",
        "orbit_uncertainty" : "0",
        "minimum_orbit_intersection" : ".23759",
        "jupiter_tisserand_invariant" : "4.975",
        "epoch_osculation" : "2458000.5",
        "eccentricity" : ".6768395547475534",
        "semi_major_axis" : "1.205010987670604",
        "inclination" : "21.96101120956536",
        "ascending_node_longitude" : "190.0814278182723",
        "orbital_period" : "483.153285694557",
        "perihelion_distance" : ".3894118873097228",
        "perihelion_argument" : "161.1340875484554",
        "aphelion_distance" : "2.020610088031485",
        "perihelion_time" : "2458041.562988819801",
        "mean_anomaly" : "329.4037556758464",
        "mean_motion" : ".7451051470807697",
        "equinox" : "J2000"
      }
    }, {
      "links" : {
        "self" : "https://api.nasa.gov/neo/rest/v1/neo/2242643?api_key=t0TVs3DtDT2H8Oy2Zy8m2eVrNsAVKAexjcZXUckd"
      },
      "neo_reference_id" : "2242643",
      "name" : "242643 (2005 NZ6)",
      "nasa_jpl_url" : "http://ssd.jpl.nasa.gov/sbdb.cgi?sstr=2242643",
      "absolute_magnitude_h" : 17.4,
      "estimated_diameter" : {
        "kilometers" : {
          "estimated_diameter_min" : 0.8801465209,
          "estimated_diameter_max" : 1.9680674509
        },
        "meters" : {
          "estimated_diameter_min" : 880.1465209007,
          "estimated_diameter_max" : 1968.067450894
        },
        "miles" : {
          "estimated_diameter_min" : 0.5468975238,
          "estimated_diameter_max" : 1.22290004
        },
        "feet" : {
          "estimated_diameter_min" : 2887.6199116319,
          "estimated_diameter_max" : 6456.914415591
        }
      },
      "is_potentially_hazardous_asteroid" : true,
      "close_approach_data" : [ {
        "close_approach_date" : "2008-05-08",
        "epoch_date_close_approach" : 1210230000000,
        "relative_velocity" : {
          "kilometers_per_second" : "38.5485031776",
          "kilometers_per_hour" : "138774.6114395299",
          "miles_per_hour" : "86229.146758079"
        },
        "miss_distance" : {
          "astronomical" : "0.2553662874",
          "lunar" : "99.3374862671",
          "kilometers" : "38202256",
          "miles" : "23737780"
        },
        "orbiting_body" : "Earth"
      } ],
      "orbital_data" : {
        "orbit_id" : "73",
        "orbit_determination_date" : "2017-04-06 09:24:58",
        "orbit_uncertainty" : "0",
        "minimum_orbit_intersection" : ".00818464",
        "jupiter_tisserand_invariant" : "3.427",
        "epoch_osculation" : "2458000.5",
        "eccentricity" : ".8643327592088514",
        "semi_major_axis" : "1.834236299108158",
        "inclination" : "8.488163494513678",
        "ascending_node_longitude" : "39.43762398434593",
        "orbital_period" : "907.3635989893534",
        "perihelion_distance" : ".2488457776589716",
        "perihelion_argument" : "48.2865317247138",
        "aphelion_distance" : "3.419626820557344",
        "perihelion_time" : "2458186.997298258384",
        "mean_anomaly" : "286.00647915808",
        "mean_motion" : ".3967538486236146",
        "equinox" : "J2000"
      }
    }, {
      "links" : {
        "self" : "https://api.nasa.gov/neo/rest/v1/neo/3519518?api_key=t0TVs3DtDT2H8Oy2Zy8m2eVrNsAVKAexjcZXUckd"
      },
      "neo_reference_id" : "3519518",
      "name" : "(2010 JK1)",
      "nasa_jpl_url" : "http://ssd.jpl.nasa.gov/sbdb.cgi?sstr=3519518",
      "absolute_magnitude_h" : 24.4,
      "estimated_diameter" : {
        "kilometers" : {
          "estimated_diameter_min" : 0.0350392641,
          "estimated_diameter_max" : 0.0783501764
        },
        "meters" : {
          "estimated_diameter_min" : 35.0392641108,
          "estimated_diameter_max" : 78.3501764334
        },
        "miles" : {
          "estimated_diameter_min" : 0.0217723826,
          "estimated_diameter_max" : 0.0486845275
        },
        "feet" : {
          "estimated_diameter_min" : 114.9582192654,
          "estimated_diameter_max" : 257.0543928497
        }
      },
      "is_potentially_hazardous_asteroid" : false,
      "close_approach_data" : [ {
        "close_approach_date" : "2008-05-08",
        "epoch_date_close_approach" : 1210230000000,
        "relative_velocity" : {
          "kilometers_per_second" : "16.643617004",
          "kilometers_per_hour" : "59917.0212142783",
          "miles_per_hour" : "37230.106876172"
        },
        "miss_distance" : {
          "astronomical" : "0.4016115542",
          "lunar" : "156.2268981934",
          "kilometers" : "60080236",
          "miles" : "37332128"
        },
        "orbiting_body" : "Earth"
      } ],
      "orbital_data" : {
        "orbit_id" : "24",
        "orbit_determination_date" : "2017-04-06 08:57:39",
        "orbit_uncertainty" : "2",
        "minimum_orbit_intersection" : ".00184959",
        "jupiter_tisserand_invariant" : "5.934",
        "epoch_osculation" : "2458000.5",
        "eccentricity" : ".1503116064839002",
        "semi_major_axis" : "1.029522079425049",
        "inclination" : ".1668281176381035",
        "ascending_node_longitude" : "201.8504404238901",
        "orbital_period" : "381.5504099023001",
        "perihelion_distance" : ".8747729617560247",
        "perihelion_argument" : "137.8162471836934",
        "aphelion_distance" : "1.184271197094074",
        "perihelion_time" : "2458095.081316772440",
        "mean_anomaly" : "270.7607457510083",
        "mean_motion" : ".943518839600203",
        "equinox" : "J2000"
      }
    } ]
  }
}